GOES 1 (SMS-C) [-]      
1 08366U 75100A   23087.46421532 -.00000121  00000+0  00000+0 0  9996
2 08366   7.5841 292.1545 0000741 329.6652 349.9499  1.00227359173268
GOES 2 [-]              
1 10061U 77048A   23088.25169888  .00000040  00000+0  00000+0 0  9994
2 10061   9.2014 304.1223 0012452  34.7856 184.7580  0.99394316111828
GOES 3 [-]              
1 10953U 78062A   23087.67549314  .00000051  00000+0  00000+0 0  9994
2 10953   9.5561 308.8326 0002221 120.3949  71.7214  0.99357284116840
GOES 4 [-]              
1 11964U 80074A   23087.31299361 -.00000131  00000+0  00000+0 0  9998
2 11964  10.5391 312.6704 0033798  80.9978 271.9019  0.99232968115752
GOES 5 [-]              
1 12472U 81049A   23088.49288421 -.00000262  00000+0  00000+0 0  9996
2 12472  11.4631 324.2569 0000923 102.7197 221.7543  1.00230994111179
GOES 6 [-]              
1 14050U 83041A   23087.21652279 -.00000196  00000+0  00000+0 0  9995
2 14050  12.0697 329.6411 0003561 133.8561  70.3961  1.00226058204214
GOES 7 [-]              
1 17561U 87022A   23088.35390729  .00000084  00000+0  00000+0 0  9998
2 17561  13.9962 346.2553 0005672  62.2574 129.2249  0.99895388115236
GOES 8 [-]              
1 23051U 94022A   23087.93656355  .00000003  00000+0  00000+0 0  9991
2 23051  13.4206  22.1837 0007201  28.8742 154.0530  0.98904305112485
GOES 9 [-]              
1 23581U 95025A   23087.58982733 -.00000083  00000+0  00000+0 0  9995
2 23581  12.9173  22.6249 0005546  90.4344 126.6057  0.98800802101120
GOES 10 [-]             
1 24786U 97019A   23087.59717524 -.00000013  00000+0  00000+0 0  9996
2 24786  11.7449  28.9172 0026170 209.3655   8.2226  0.99125183 94405
GOES 11 [-]             
1 26352U 00022A   23087.71080672 -.00000224  00000+0  00000+0 0  9990
2 26352   9.2887  57.0154 0001777 285.1550  88.1230  0.99045300 40820
GOES 12 [-]             
1 26871U 01031A   23087.64116205 -.00000185  00000+0  00000+0 0  9997
2 26871  10.0309  46.2795 0006476 332.5555  36.4181  0.99140057 79108
EWS-G1 (GOES 13) [+]    
1 29155U 06018A   23087.87479830  .00000029  00000+0  00000+0 0  9992
2 29155   1.3255  92.1157 0002534 179.7107 290.6131  1.00276895 31588
GOES 14 [B]             
1 35491U 09033A   23088.25544139 -.00000076  00000+0  00000+0 0  9993
2 35491   0.1485 117.8585 0005242 282.6379 129.8163  1.00270318 50363
GOES 15 [B]             
1 36411U 10008A   23087.68762089  .00000048  00000+0  00000+0 0  9990
2 36411   0.1643  94.8805 0001570 355.2518 215.1418  1.00263674 47863
GOES 16 [+]             
1 41866U 16071A   23088.55363344 -.00000256  00000+0  00000+0 0  9996
2 41866   0.0728 287.9726 0000514  66.9409 315.8739  1.00271729 23313
GOES 17 [+]             
1 43226U 18022A   23088.53035491 -.00000098  00000+0  00000+0 0  9997
2 43226   0.0369  20.1453 0001599  15.6138 237.0672  1.00271896 18640
GOES 18 [+]             
1 51850U 22021A   23087.25503941  .00000089  00000+0  00000+0 0  9990
2 51850   0.0448  18.5389 0000724 291.0023 190.6596  1.00271527  3982
